#dP2023  9 23  0  0  0.00000000      96 __u+U ITR00 EXT  IAC
## 2280 518400.00000000   900.00000000 60210 0.0000000000000
+  120   C06C07C08C09C10C11C12C13C14C16C19C20C21C22C23C24C25
+        C26C27C28C29C30C32C33C34C35C36C37C38C39C40C41C42C43
+        C44C45C46E02E03E04E05E07E08E09E10E11E12E13E14E15E18
+        E19E21E24E25E26E27E30E31E33E34E36G01G02G03G04G05G06
+        G07G08G09G10G11G12G13G14G15G16G17G18G19G20G21G22G23
+        G24G25G26G27G28G29G30G31G32J02J03J04R01R02R03R04R05
+        R07R08R09R11R12R13R14R15R16R17R18R19R20R21R22R24R25
+        R26  0  0  0  0  0  0  0  0  0  0  0  0  0  0  0  0
++         7  9 11  9  8  9  9 11 11  8  8  9  8  8  8  9  7
++         9  9  7  9  7  8  8  9  9  8  6 10 11  9  8  8  8
++         9  8  9  7  8  7  9  8  7  8  7  7  7  7  8  7  7
++         7  7  7  8  9  7  7  8  8  7  6  7  6  7  6  8  7
++         7  7  7  7  9  8  6  7  7  7  7  7  7  7  7  7  8
++         7  8  7  7  8  8  6  6  8  9  9 11  8  7  7  7  8
++        10  7  8  7  7  8  8  8  9  8  8  8 10  7  7 10  7
++         7  0  0  0  0  0  0  0  0  0  0  0  0  0  0  0  0
%c M  cc GPS ccc cccc cccc cccc cccc ccccc ccccc ccccc ccccc
%c cc cc ccc ccc cccc cccc cccc cccc ccccc ccccc ccccc ccccc
%f  0.0000000  0.000000000  0.00000000000  0.000000000000000
%f  0.0000000  0.000000000  0.00000000000  0.000000000000000
%i    0    0    0    0      0      0      0      0         0
%i    0    0    0    0      0      0      0      0         0
/* IAC                                ULTRA-RAPID PREDICTION
/* S/V CLOCKS ARE ALIGNED TO GNSS TIME                      
/* G:C1WC2W R:C1PC2P E:C1XC5X C:C2IC6I J:C1CC2S             
/* PCV:IGS20_2280 OL/AL:FES2004  NONE     YN ORB:CoN CLK:CoN
*  2023 09 23  9 30  0.00000000
PC06  -3044.493594  25559.727631  33462.833731     22.288928
PC07 -18459.768859  34213.239054 -16476.261311    -48.610265
PC08  -4819.571991  39201.876157 -14455.307473    331.940047
PC09   4387.429988  28424.908763  31437.449951    130.715633
PC10 -11509.912338  34327.364864 -21699.132064   -187.715447
PC11  -3926.783059  14856.756889 -23223.241998      3.496135
PC12 -22174.370838   5683.836537 -15932.094014    926.464680
PC13   -301.160619  41206.756924  -8019.836685    356.454378
PC14 -10653.798782  23319.367366  11091.083009    457.223481
PC16  -8477.852602  22797.542998  34699.637218    -93.058907
PC19   2190.570150 -21004.473476 -18218.337920   -970.513553
PC20  16368.262347 -22247.528874  -3887.397145    261.080974
PC21 -21894.122790  10080.587051 -14075.839640   -970.745048
PC22 -14070.020595  -7605.227114 -22881.719083   -295.669906
PC23  15659.722643  19640.769518 -12140.181141   -863.637934
PC24  -8375.337395  18574.655534  19047.773902    421.759726
PC25   6398.973891  26838.813279   4093.923930    217.423303
PC26 -16771.337231    665.650299  22284.272102   -181.698375
PC27  26494.795711   -397.343485   8742.173269    203.301053
PC28  24689.139978  10703.106118  -7370.585605    152.655088
PC29  -7542.622472 -16455.454795  21236.225488    178.319509
PC30  14283.665132 -12134.862192  20673.831785     -5.346078
PC32  21798.656934 -10115.480905  14184.427907   -528.255249
PC33  -2161.811445  21101.507537  18133.983769   -965.218112
PC34 -12815.034707  12828.053361 -21218.509808    265.685664
PC35 -25022.091037  -9836.483634   7410.651979    540.483728
PC36  -5217.583365 -26983.957430  -4845.666248   -212.669587
PC37  16962.053668    589.142242 -22133.046697   -834.324052
PC38  -9692.015814  35122.892526 -21036.568892    106.614615
PC39 -13483.904879  20268.568194  34448.985511     -4.908586
PC40 -25974.073903  29314.148184 -15931.600258    -37.523005
PC41  13584.950125   8294.951178  22965.129300   -876.574882
PC42 -17188.143148  21864.877184   2470.410099   -539.788670
PC43   6507.350396  16608.719448 -21471.655684     40.962822
PC44 -26514.128749   1356.462514  -8570.542813    240.104843
PC45 -15758.654784 -19269.658351  12641.615168    -28.611145
PC46   7459.041652 -19600.535108 -18429.540729    -86.429831
PE02  17529.264579 -13540.565329 -19639.977267     64.891023
PE03  27517.923978 -10297.378055  -3555.505262    -58.609439
PE04 -13410.929360  17881.713993  19406.540340   -218.407719
PE05  25650.805791   3294.702852  14396.974106     20.973122
PE07  -8340.508412 -15151.011767 -24023.494098    -76.911203
PE08  13896.682003 -17723.681160 -19208.259527   -150.605591
PE09   8134.498523  15069.133480  24138.835964   -166.402472
PE10   6759.423271  22587.859954 -17893.830194   -565.852457
PE11  15578.534291  23471.554949  -9100.989548   2978.693257
PE12  -2353.880308  18492.130809 -22998.534455   -708.739382
PE13 -15109.828785 -23503.643196   9778.870657    -19.703945
PE14 -23282.715912  17276.887683 -14605.166545    348.460065
PE15   2692.501012 -18182.668557  23206.245140    -55.499860
PE18  14995.854246 -13293.585481  12254.333548    563.516736
PE19 -28294.279340   8616.862008   1130.131085  -1572.503208
PE21 -15280.511390  -7493.167743  24224.212991   -554.262052
PE24   3626.155911  25550.270732 -14487.122391   -337.022024
PE25  15137.558193   7892.537138 -24169.494612     -2.220680
PE26 -23910.460543 -14464.121431  -9777.451457    230.728542
PE27  -4074.435886 -25231.483057  14947.446794   -156.996122
PE30   9755.759031 -27744.108070  -3421.130344   -522.876438
PE31  -9417.687437  27895.423584   3051.522996     -5.772164
PE33 -19040.724278   1698.107405 -22603.860610     -0.254989
PE34  18646.993514  -2345.196500  22856.574361    -68.560177
PE36  23812.198992  14997.800221   9172.755905   -120.147284
PG01  21057.019641  13676.658639   8822.701987    164.871538
PG02  21321.267648  15857.487553   2614.416500   -550.615754
PG03  13760.924960   5380.005950  21927.609458   -119.701631
PG04  24460.551051   1827.608360  10350.074816    164.204635
PG05  -7238.288431 -19660.865448 -16451.298617   -143.799746
PG06   1452.821571 -17401.685943  20048.422750    545.011591
PG07  17767.996788  -1678.486577 -19345.766026     59.536102
PG08  17913.815291   8047.915669 -18140.512328   -143.658392
PG09  25798.441921  -6187.867426   1703.048296    -52.057442
PG10 -10905.358077  23016.511859  -6727.482600    -54.516362
PG11  -9959.741045 -22190.795243  10743.891743   -382.259881
PG12 -12210.773050  -9725.606425  21227.213755   -427.956601
PG13  -8899.838560 -13592.025731 -21247.636584    575.862520
PG14  13504.091139 -20621.808718  -9642.923107    193.292429
PG15 -19338.901689  -6076.067188 -17765.429097     80.244377
PG16   1501.945697  22827.658722 -13404.578329   -450.003760
PG17  18582.943532 -13395.879021  13972.730389    723.836929
PG18 -15973.657151   3827.561572 -20905.606624   -426.485133
PG19  10894.343731 -14722.252600  18907.530473    375.337744
PG20  -1740.050486 -25945.135439  -5841.550079    410.437835
PG21  20567.869125  17568.381785   -207.845916    148.327932
PG22  10564.759015 -24410.991675  -1977.064077    116.378097
PG23 -15156.920006  13394.442455 -17112.709560     72.343591
PG24 -21840.229913 -15040.318852   3411.256122   -327.255110
PG25 -16118.013115   5508.218876  19995.280607    469.212424
PG26  -3220.431627  26062.163189  -2500.236542    227.081512
PG27   5209.913252  14351.925017 -21998.372382    -44.059220
PG28  -3043.721987  16686.478480  20416.798378    -13.872407
PG29 -26293.089794   3920.822079   1311.176087   -609.553992
PG30  10479.181565 -11710.873057 -21284.299801   -485.233049
PG31   5508.876829  21016.973379  14793.912520   -223.752959
PG32 -14179.164735  15620.369056  16189.643428   -562.306496
PJ02 -31437.240569  25739.281697  16307.309005     -4.470682
PJ03 -26470.014680  16319.653567 -23880.504629     -3.356689
PJ04 -25095.646836  33814.560038   1909.843483     70.736216
PR01 -12165.553551  18097.853349  13234.938827     66.238634
PR02   3442.998778  10821.816468  22871.689371    -22.400038
PR03  17206.243901  -2117.354313  18777.890600     85.751749
PR04  21197.504941 -13472.406384   4531.476121    203.958765
PR05  13878.615162 -17598.807762 -12202.481735    119.470879
PR07 -17586.997860   2726.726975 -18215.103746     65.292607
PR08 -21050.651878  13723.688114  -4215.093806    -72.632647
PR09  -7646.041768 -23078.850931   7605.034592    143.802409
PR11  -9509.534437   7957.489860  22307.155591   -172.543627
PR12  -1614.503763  23331.988121  10195.383689     31.588981
PR13   6403.888559  24059.729255  -5555.903137    -39.493780
PR14  11536.878072   9787.555348 -20526.743119     25.299339
PR15   9291.261243  -9308.569748 -21831.383551     85.963199
PR16   1518.026166 -23198.321182 -10444.618423     18.962815
PR17  23786.936183   8908.968530   2045.232038     19.581502
PR18  19026.677562   -169.292713  17026.705660    103.341638
PR19   6256.168144  -8481.424823  23229.122277   -248.294520
PR20 -14296.507978 -14291.990128  15546.669644   -100.537391
PR21 -23821.169513  -8678.908456  -2978.893212    -40.155649
PR22 -18510.469940    468.525581 -17514.462151     85.432182
PR24  15210.669145  14006.296590 -14901.596086    -25.469927
PR25 -23415.144322  -9961.089468  -1977.508491     31.571883
PR26 -21048.362015  13630.150020  -4713.932886    -22.983715
EOF
